[{"OBJECT_NAME":"STARLINK-32802","OBJECT_ID":"2025-014D","EPOCH":"2026-03-09T05:55:15.528000","MEAN_MOTION":15.27580243,"ECCENTRICITY":0.00012119,"INCLINATION":43.0003,"RA_OF_ASC_NODE":156.5437,"ARG_OF_PERICENTER":247.8832,"MEAN_ANOMALY":112.1891,"EPHEMERIS_TYPE":0,"CLASSIFICATION_TYPE":"U","NORAD_CAT_ID":62738,"ELEMENT_SET_NO":999,"REV_AT_EPOCH":6319,"BSTAR":0.0012850512,"MEAN_MOTION_DOT":0.00035269,"MEAN_MOTION_DDOT":0},{"OBJECT_NAME":"COSMOS 2251 DEB","OBJECT_ID":"1993-036RB","EPOCH":"2026-03-09T01:08:04.800192","MEAN_MOTION":15.30699894,"ECCENTRICITY":0.00252965,"INCLINATION":73.7308,"RA_OF_ASC_NODE":76.2904,"ARG_OF_PERICENTER":263.9966,"MEAN_ANOMALY":95.8352,"EPHEMERIS_TYPE":0,"CLASSIFICATION_TYPE":"U","NORAD_CAT_ID":34410,"ELEMENT_SET_NO":999,"REV_AT_EPOCH":91089,"BSTAR":0.003018315,"MEAN_MOTION_DOT":0.00091531,"MEAN_MOTION_DDOT":0}]
